{
"type": "FeatureCollection",
"name": "county_geo",
"crs": { "type": "name", "properties": { "name": "urn:ogc:def:crs:OGC:1.3:CRS84" } },
"features": [
{ "type": "Feature", "properties": { "county": "Saratoga" }, "geometry": { "type": "Polygon", "coordinates": [ [ [ -74.1601, 43.371532 ], [ -73.883299, 43.397988 ], [ -73.878667, 43.390929 ], [ -73.877392, 43.386646 ], [ -73.874567, 43.384495 ], [ -73.870977, 43.372523 ], [ -73.872175, 43.369216 ], [ -73.875159, 43.365725 ], [ -73.875139, 43.361921 ], [ -73.873355, 43.359744 ], [ -73.864754, 43.354178 ], [ -73.864038, 43.345496 ], [ -73.85917, 43.342962 ], [ -73.853286, 43.33775 ], [ -73.854309, 43.33482 ], [ -73.856877, 43.333564 ], [ -73.858991, 43.33032 ], [ -73.858647, 43.328115 ], [ -73.854904, 43.325315 ], [ -73.849363, 43.323917 ], [ -73.84319, 43.318852 ], [ -73.842426, 43.314739 ], [ -73.840364, 43.313153 ], [ -73.836918, 43.306611 ], [ -73.833466, 43.304871 ], [ -73.825828, 43.305348 ], [ -73.824615, 43.30427 ], [ -73.827503, 43.28457 ], [ -73.825152, 43.277545 ], [ -73.832651, 43.270856 ], [ -73.835567, 43.265835 ], [ -73.835811, 43.253756 ], [ -73.834917, 43.251004 ], [ -73.832942, 43.249062 ], [ -73.829179, 43.247974 ], [ -73.825864, 43.245583 ], [ -73.820968, 43.247985 ], [ -73.819532, 43.250643 ], [ -73.815369, 43.250989 ], [ -73.803298, 43.25032 ], [ -73.792889, 43.246243 ], [ -73.788134, 43.243048 ], [ -73.77949, 43.234904 ], [ -73.775795, 43.227968 ], [ -73.77269, 43.224731 ], [ -73.767498, 43.222123 ], [ -73.765269, 43.222776 ], [ -73.760219, 43.231858 ], [ -73.743957, 43.242717 ], [ -73.737574, 43.255226 ], [ -73.73997, 43.264709 ], [ -73.73852, 43.266578 ], [ -73.730478, 43.270774 ], [ -73.709848, 43.274291 ], [ -73.705576, 43.278938 ], [ -73.703836, 43.27935 ], [ -73.698235, 43.278282 ], [ -73.695244, 43.278915 ], [ -73.692963, 43.282733 ], [ -73.690162, 43.284072 ], [ -73.684962, 43.280872 ], [ -73.68076, 43.267371 ], [ -73.67639, 43.263475 ], [ -73.669561, 43.263871 ], [ -73.661061, 43.272872 ], [ -73.675162, 43.285072 ], [ -73.675862, 43.287472 ], [ -73.671273, 43.293154 ], [ -73.665862, 43.290866 ], [ -73.653061, 43.291272 ], [ -73.651377, 43.290079 ], [ -73.641861, 43.293273 ], [ -73.642761, 43.304172 ], [ -73.641056, 43.305776 ], [ -73.635941, 43.306998 ], [ -73.628584, 43.304034 ], [ -73.609831, 43.306542 ], [ -73.599463, 43.306742 ], [ -73.59496, 43.306118 ], [ -73.588822, 43.300543 ], [ -73.589111, 43.297703 ], [ -73.592729, 43.295084 ], [ -73.597136, 43.284114 ], [ -73.600044, 43.279762 ], [ -73.600738, 43.268836 ], [ -73.596, 43.269117 ], [ -73.592356, 43.267149 ], [ -73.589096, 43.263714 ], [ -73.58722, 43.259712 ], [ -73.587857, 43.253498 ], [ -73.597082, 43.244441 ], [ -73.597481, 43.24095 ], [ -73.593124, 43.232165 ], [ -73.589297, 43.230836 ], [ -73.585957, 43.227432 ], [ -73.584279, 43.222354 ], [ -73.581546, 43.218897 ], [ -73.581014, 43.213614 ], [ -73.579464, 43.210677 ], [ -73.579279, 43.208906 ], [ -73.583197, 43.202268 ], [ -73.585705, 43.19312 ], [ -73.585532, 43.191139 ], [ -73.582346, 43.189643 ], [ -73.581003, 43.18249 ], [ -73.583836, 43.176844 ], [ -73.588642, 43.173026 ], [ -73.589836, 43.170472 ], [ -73.587743, 43.166793 ], [ -73.583827, 43.166131 ], [ -73.583102, 43.164703 ], [ -73.583983, 43.162824 ], [ -73.580363, 43.156432 ], [ -73.580214, 43.152882 ], [ -73.589497, 43.141575 ], [ -73.590752, 43.139488 ], [ -73.590938, 43.13511 ], [ -73.589832, 43.131499 ], [ -73.586554, 43.128145 ], [ -73.585599, 43.123665 ], [ -73.577229, 43.118976 ], [ -73.575484, 43.114851 ], [ -73.57611, 43.110463 ], [ -73.573342, 43.100545 ], [ -73.578228, 43.090632 ], [ -73.575297, 43.082502 ], [ -73.581116, 43.073013 ], [ -73.581714, 43.068695 ], [ -73.577891, 43.058666 ], [ -73.578155, 43.055787 ], [ -73.580865, 43.052591 ], [ -73.586306, 43.048716 ], [ -73.586999, 43.042652 ], [ -73.590753, 43.035821 ], [ -73.591578, 43.031962 ], [ -73.590875, 43.023241 ], [ -73.593635, 43.01433 ], [ -73.597445, 43.007372 ], [ -73.606699, 42.999241 ], [ -73.609282, 42.982241 ], [ -73.629425, 42.972147 ], [ -73.631467, 42.969739 ], [ -73.628708, 42.959151 ], [ -73.629653, 42.950265 ], [ -73.632305, 42.944379 ], [ -73.635463, 42.94129 ], [ -73.639952, 42.939418 ], [ -73.650897, 42.938138 ], [ -73.659675, 42.933364 ], [ -73.662943, 42.929556 ], [ -73.663677, 42.926445 ], [ -73.678913, 42.912212 ], [ -73.679376, 42.909455 ], [ -73.683074, 42.903776 ], [ -73.684535, 42.892837 ], [ -73.679809, 42.882332 ], [ -73.673238, 42.875344 ], [ -73.673814, 42.866762 ], [ -73.675904, 42.858575 ], [ -73.673757, 42.855465 ], [ -73.670609, 42.839743 ], [ -73.665759, 42.833373 ], [ -73.659663, 42.818978 ], [ -73.660162, 42.816777 ], [ -73.658462, 42.809077 ], [ -73.661362, 42.802977 ], [ -73.663562, 42.800877 ], [ -73.667362, 42.800177 ], [ -73.672355, 42.795791 ], [ -73.673463, 42.790276 ], [ -73.676762, 42.783277 ], [ -73.681162, 42.782977 ], [ -73.683457, 42.779112 ], [ -73.687262, 42.777077 ], [ -73.688362, 42.775477 ], [ -73.690262, 42.775477 ], [ -73.697862, 42.778777 ], [ -73.708963, 42.787677 ], [ -73.711363, 42.795177 ], [ -73.719863, 42.801277 ], [ -73.720363, 42.804177 ], [ -73.716663, 42.808177 ], [ -73.721363, 42.813077 ], [ -73.722663, 42.820677 ], [ -73.726663, 42.822577 ], [ -73.737663, 42.818877 ], [ -73.748365, 42.805276 ], [ -73.750165, 42.801376 ], [ -73.758466, 42.795276 ], [ -73.763465, 42.788576 ], [ -73.766664, 42.786077 ], [ -73.768764, 42.785877 ], [ -73.777364, 42.791777 ], [ -73.779964, 42.792177 ], [ -73.787065, 42.789677 ], [ -73.793565, 42.782577 ], [ -73.799297, 42.778944 ], [ -73.809369, 42.778869 ], [ -73.822166, 42.780278 ], [ -73.827667, 42.783776 ], [ -73.829064, 42.790177 ], [ -73.83217, 42.793076 ], [ -73.841569, 42.797875 ], [ -73.858468, 42.819977 ], [ -73.866769, 42.828377 ], [ -73.875864, 42.834274 ], [ -73.879663, 42.848575 ], [ -73.881769, 42.850876 ], [ -73.887982, 42.850182 ], [ -73.895938, 42.851076 ], [ -73.904386, 42.911163 ], [ -73.918483, 42.910356 ], [ -73.934779, 42.905409 ], [ -73.955458, 42.897306 ], [ -73.964788, 42.90206 ], [ -73.976842, 42.915899 ], [ -74.006531, 42.934073 ], [ -74.032911, 42.943135 ], [ -74.042269, 42.94835 ], [ -74.055605, 42.953289 ], [ -74.09298, 42.955868 ], [ -74.136026, 43.228831 ], [ -74.1601, 43.371532 ] ] ] } },
{ "type": "Feature", "properties": { "county": "Albany" }, "geometry": { "type": "Polygon", "coordinates": [ [ [ -74.264731, 42.420127 ], [ -74.252424, 42.445369 ], [ -74.244484, 42.470182 ], [ -74.241629, 42.472036 ], [ -74.236447, 42.485459 ], [ -74.228501, 42.494381 ], [ -74.226447, 42.499233 ], [ -74.224985, 42.50855 ], [ -74.225639, 42.526403 ], [ -74.229065, 42.52903 ], [ -74.241572, 42.550802 ], [ -74.236959, 42.56012 ], [ -74.237621, 42.563124 ], [ -74.233995, 42.575688 ], [ -74.220274, 42.585412 ], [ -74.219639, 42.591386 ], [ -74.215166, 42.597435 ], [ -74.210509, 42.60099 ], [ -74.193495, 42.618999 ], [ -74.192569, 42.627069 ], [ -74.179324, 42.646384 ], [ -74.173428, 42.657318 ], [ -74.173546, 42.659247 ], [ -74.169725, 42.667426 ], [ -74.168525, 42.67431 ], [ -74.169525, 42.691365 ], [ -74.164678, 42.717207 ], [ -74.180274, 42.729979 ], [ -73.960228, 42.757572 ], [ -73.933755, 42.7607 ], [ -73.932296, 42.75993 ], [ -73.930745, 42.761047 ], [ -73.809603, 42.775016 ], [ -73.809369, 42.778869 ], [ -73.797965, 42.779477 ], [ -73.793565, 42.782577 ], [ -73.787065, 42.789677 ], [ -73.782464, 42.791777 ], [ -73.777364, 42.791777 ], [ -73.768764, 42.785877 ], [ -73.766664, 42.786077 ], [ -73.763465, 42.788576 ], [ -73.758466, 42.795276 ], [ -73.750165, 42.801376 ], [ -73.748365, 42.805276 ], [ -73.736963, 42.819477 ], [ -73.726663, 42.822577 ], [ -73.723663, 42.821477 ], [ -73.722163, 42.819677 ], [ -73.721363, 42.813077 ], [ -73.716663, 42.808177 ], [ -73.720363, 42.804177 ], [ -73.719863, 42.801277 ], [ -73.711363, 42.795177 ], [ -73.708963, 42.787677 ], [ -73.70359, 42.78286 ], [ -73.697862, 42.778777 ], [ -73.690262, 42.775477 ], [ -73.688362, 42.775477 ], [ -73.687262, 42.777077 ], [ -73.683457, 42.779112 ], [ -73.681162, 42.782977 ], [ -73.676762, 42.783277 ], [ -73.683269, 42.767949 ], [ -73.684362, 42.757878 ], [ -73.687262, 42.752478 ], [ -73.688962, 42.738278 ], [ -73.690026, 42.735626 ], [ -73.697263, 42.728778 ], [ -73.703563, 42.709478 ], [ -73.702921, 42.6993 ], [ -73.729127, 42.665052 ], [ -73.741798, 42.654318 ], [ -73.751165, 42.63608 ], [ -73.752965, 42.628679 ], [ -73.761265, 42.610379 ], [ -73.761265, 42.600779 ], [ -73.758265, 42.58988 ], [ -73.752365, 42.57668 ], [ -73.752168, 42.56672 ], [ -73.756465, 42.54868 ], [ -73.758313, 42.534215 ], [ -73.76113, 42.526322 ], [ -73.763091, 42.522026 ], [ -73.77588, 42.505817 ], [ -73.785548, 42.487209 ], [ -73.786078, 42.475249 ], [ -73.783721, 42.464231 ], [ -73.836757, 42.458592 ], [ -73.930699, 42.445192 ], [ -74.263469, 42.407127 ], [ -74.264731, 42.420127 ] ] ] } },
{ "type": "Feature", "properties": { "county": "Schenectady" }, "geometry": { "type": "Polygon", "coordinates": [ [ [ -74.305932, 42.751493 ], [ -74.298311, 42.75445 ], [ -74.286988, 42.756685 ], [ -74.269722, 42.757368 ], [ -74.263839, 42.755567 ], [ -74.258507, 42.757398 ], [ -74.252815, 42.76349 ], [ -74.25148, 42.766096 ], [ -74.25441, 42.772237 ], [ -74.254379, 42.776006 ], [ -74.251633, 42.780889 ], [ -74.248062, 42.78457 ], [ -74.248131, 42.786886 ], [ -74.253433, 42.790533 ], [ -74.254442, 42.795297 ], [ -74.256547, 42.79587 ], [ -74.260457, 42.79512 ], [ -74.263314, 42.796534 ], [ -74.264759, 42.798948 ], [ -74.258528, 42.802386 ], [ -74.255323, 42.806064 ], [ -74.254778, 42.808479 ], [ -74.256829, 42.812214 ], [ -74.083883, 42.897354 ], [ -74.09298, 42.955868 ], [ -74.055605, 42.953289 ], [ -74.042269, 42.94835 ], [ -74.032911, 42.943135 ], [ -74.006531, 42.934073 ], [ -73.976842, 42.915899 ], [ -73.964788, 42.90206 ], [ -73.955458, 42.897306 ], [ -73.934779, 42.905409 ], [ -73.918483, 42.910356 ], [ -73.904386, 42.911163 ], [ -73.895938, 42.851076 ], [ -73.887982, 42.850182 ], [ -73.881769, 42.850876 ], [ -73.879663, 42.848575 ], [ -73.875864, 42.834274 ], [ -73.866769, 42.828377 ], [ -73.858468, 42.819977 ], [ -73.841569, 42.797875 ], [ -73.83217, 42.793076 ], [ -73.829064, 42.790177 ], [ -73.827667, 42.783776 ], [ -73.822166, 42.780278 ], [ -73.809369, 42.778869 ], [ -73.809603, 42.775016 ], [ -73.930745, 42.761047 ], [ -73.932296, 42.75993 ], [ -73.933755, 42.7607 ], [ -73.960228, 42.757572 ], [ -74.180274, 42.729979 ], [ -74.184299, 42.712494 ], [ -74.202713, 42.710826 ], [ -74.239846, 42.718924 ], [ -74.241014, 42.716857 ], [ -74.272295, 42.71427 ], [ -74.270768, 42.719542 ], [ -74.27784, 42.719472 ], [ -74.305176, 42.747242 ], [ -74.306665, 42.750074 ], [ -74.305932, 42.751493 ] ] ] } },
{ "type": "Feature", "properties": { "county": "Rensselaer" }, "geometry": { "type": "Polygon", "coordinates": [ [ [ -73.786047, 42.483835 ], [ -73.784594, 42.489947 ], [ -73.779397, 42.500081 ], [ -73.763091, 42.522026 ], [ -73.758313, 42.534215 ], [ -73.756465, 42.54868 ], [ -73.752168, 42.56672 ], [ -73.752365, 42.57668 ], [ -73.758265, 42.58988 ], [ -73.761265, 42.600779 ], [ -73.761265, 42.610379 ], [ -73.752965, 42.628679 ], [ -73.751165, 42.63608 ], [ -73.741798, 42.654318 ], [ -73.729127, 42.665052 ], [ -73.702921, 42.6993 ], [ -73.703563, 42.709478 ], [ -73.697263, 42.728778 ], [ -73.690026, 42.735626 ], [ -73.688962, 42.738278 ], [ -73.687262, 42.752478 ], [ -73.684362, 42.757878 ], [ -73.683269, 42.767949 ], [ -73.673463, 42.790276 ], [ -73.672562, 42.795377 ], [ -73.667362, 42.800177 ], [ -73.663562, 42.800877 ], [ -73.661362, 42.802977 ], [ -73.658462, 42.809077 ], [ -73.660162, 42.816777 ], [ -73.659663, 42.818978 ], [ -73.665759, 42.833373 ], [ -73.670609, 42.839743 ], [ -73.673757, 42.855465 ], [ -73.675904, 42.858575 ], [ -73.673814, 42.866762 ], [ -73.673238, 42.875344 ], [ -73.679809, 42.882332 ], [ -73.684535, 42.892837 ], [ -73.683074, 42.903776 ], [ -73.679376, 42.909455 ], [ -73.678913, 42.912212 ], [ -73.663677, 42.926445 ], [ -73.662943, 42.929556 ], [ -73.659675, 42.933364 ], [ -73.650897, 42.938138 ], [ -73.639952, 42.939418 ], [ -73.635463, 42.94129 ], [ -73.450593, 42.944581 ], [ -73.449326, 42.945317 ], [ -73.449269, 42.951217 ], [ -73.440616, 42.953683 ], [ -73.43316, 42.958241 ], [ -73.430623, 42.95865 ], [ -73.426845, 42.958515 ], [ -73.424921, 42.955989 ], [ -73.420659, 42.954903 ], [ -73.412103, 42.957383 ], [ -73.408213, 42.956932 ], [ -73.404508, 42.95549 ], [ -73.404803, 42.953205 ], [ -73.403225, 42.951242 ], [ -73.398075, 42.953088 ], [ -73.393472, 42.95309 ], [ -73.389692, 42.950587 ], [ -73.388566, 42.948156 ], [ -73.381489, 42.948252 ], [ -73.379366, 42.947562 ], [ -73.378632, 42.945038 ], [ -73.380235, 42.943739 ], [ -73.274294, 42.943652 ], [ -73.278673, 42.83341 ], [ -73.284311, 42.834954 ], [ -73.285388, 42.834093 ], [ -73.287063, 42.82014 ], [ -73.28375, 42.813864 ], [ -73.286337, 42.808038 ], [ -73.290944, 42.80192 ], [ -73.276421, 42.746019 ], [ -73.264957, 42.74594 ], [ -73.352527, 42.510002 ], [ -73.497691, 42.495232 ], [ -73.58317, 42.484494 ], [ -73.783721, 42.464231 ], [ -73.785709, 42.471632 ], [ -73.786047, 42.483835 ] ] ] } }
]
}
